OBJECT C                
1 57582U 23117C   24297.29821598  .00013509  00000+0  63846-3 0  9996
2 57582  97.4732   7.8038 0009762 200.8233 159.2605 15.19483494 66614
